{"type": "FeatureCollection", "features": [{"type": "Feature", "properties": {"unit_id": "CT1", "unit_name": "Container Terminal 1", "zone": "Container"}, "geometry": {"type": "Polygon", "coordinates": [[[69.70709, 22.747374], [69.709323, 22.751575], [69.705615, 22.753546], [69.703381, 22.749346], [69.70709, 22.747374]]]}}, {"type": "Feature", "properties": {"unit_id": "CT2", "unit_name": "Container Terminal 2", "zone": "Container"}, "geometry": {"type": "Polygon", "coordinates": [[[69.711051, 22.748995], [69.713262, 22.753154], [69.709554, 22.755126], [69.707342, 22.750967], [69.711051, 22.748995]]]}}, {"type": "Feature", "properties": {"unit_id": "CT3", "unit_name": "Container Terminal 3", "zone": "Container"}, "geometry": {"type": "Polygon", "coordinates": [[[69.71509, 22.750474], [69.717323, 22.754675], [69.713615, 22.756646], [69.711381, 22.752446], [69.71509, 22.750474]]]}}, {"type": "Feature", "properties": {"unit_id": "CT4", "unit_name": "Container Terminal 4", "zone": "Container"}, "geometry": {"type": "Polygon", "coordinates": [[[69.720659, 22.7513], [69.724354, 22.758249], [69.720646, 22.760221], [69.71695, 22.753271], [69.720659, 22.7513]]]}}, {"type": "Feature", "properties": {"unit_id": "CT5", "unit_name": "Container Terminal 5", "zone": "Container"}, "geometry": {"type": "Polygon", "coordinates": [[[69.72759, 22.754874], [69.729823, 22.759075], [69.726115, 22.761046], [69.723881, 22.756846], [69.72759, 22.754874]]]}}, {"type": "Feature", "properties": {"unit_id": "WBC", "unit_name": "West Basin Coal Terminal", "zone": "Dry Bulk & General"}, "geometry": {"type": "Polygon", "coordinates": [[[69.688137, 22.734583], [69.689776, 22.737665], [69.686067, 22.739637], [69.684429, 22.736555], [69.688137, 22.734583]]]}}, {"type": "Feature", "properties": {"unit_id": "MPT", "unit_name": "Multipurpose Terminal", "zone": "Dry Bulk & General"}, "geometry": {"type": "Polygon", "coordinates": [[[69.700625, 22.740824], [69.704188, 22.747525], [69.700479, 22.749497], [69.696916, 22.742796], [69.700625, 22.740824]]]}}, {"type": "Feature", "properties": {"unit_id": "RRT", "unit_name": "Ro-Ro Terminal", "zone": "Dry Bulk & General"}, "geometry": {"type": "Polygon", "coordinates": [[[69.731455, 22.746212], [69.732958, 22.749037], [69.729249, 22.751009], [69.727747, 22.748183], [69.731455, 22.746212]]]}}, {"type": "Feature", "properties": {"unit_id": "LQB", "unit_name": "Liquid Terminal", "zone": "Liquid & Offshore"}, "geometry": {"type": "Polygon", "coordinates": [[[69.695068, 22.73812], [69.697944, 22.743529], [69.694236, 22.745501], [69.69136, 22.740092], [69.695068, 22.73812]]]}}, {"type": "Feature", "properties": {"unit_id": "SPM", "unit_name": "SPM Crude", "zone": "Liquid & Offshore", "part": "SPM-1"}, "geometry": {"type": "Polygon", "coordinates": [[[69.629, 22.635], [69.628696, 22.636408], [69.627828, 22.637602], [69.626531, 22.6384], [69.625, 22.63868], [69.623469, 22.6384], [69.622172, 22.637602], [69.621304, 22.636408], [69.621, 22.635], [69.621304, 22.633592], [69.622172, 22.632398], [69.623469, 22.6316], [69.625, 22.63132], [69.626531, 22.6316], [69.627828, 22.632398], [69.628696, 22.633592], [69.629, 22.635]]]}}, {"type": "Feature", "properties": {"unit_id": "SPM", "unit_name": "SPM Crude", "zone": "Liquid & Offshore", "part": "SPM-2"}, "geometry": {"type": "Polygon", "coordinates": [[[69.646, 22.628], [69.645696, 22.629408], [69.644828, 22.630602], [69.643531, 22.6314], [69.642, 22.63168], [69.640469, 22.6314], [69.639172, 22.630602], [69.638304, 22.629408], [69.638, 22.628], [69.638304, 22.626592], [69.639172, 22.625398], [69.640469, 22.6246], [69.642, 22.62432], [69.643531, 22.6246], [69.644828, 22.625398], [69.645696, 22.626592], [69.646, 22.628]]]}}]}