{"type": "FeatureCollection", "features": [{"type": "Feature", "properties": {"code": "MICT-1", "terminal": "MICT"}, "geometry": {"type": "Point", "coordinates": [69.7065, 22.7495]}}, {"type": "Feature", "properties": {"code": "MICT-2", "terminal": "MICT"}, "geometry": {"type": "Point", "coordinates": [69.7085, 22.7502]}}, {"type": "Feature", "properties": {"code": "AMCT-1", "terminal": "AMCT"}, "geometry": {"type": "Point", "coordinates": [69.7105, 22.7511]}}, {"type": "Feature", "properties": {"code": "AMCT-2", "terminal": "AMCT"}, "geometry": {"type": "Point", "coordinates": [69.7124, 22.7518]}}, {"type": "Feature", "properties": {"code": "AMC2-1", "terminal": "AMC2"}, "geometry": {"type": "Point", "coordinates": [69.7145, 22.7526]}}, {"type": "Feature", "properties": {"code": "AMC2-2", "terminal": "AMC2"}, "geometry": {"type": "Point", "coordinates": [69.7165, 22.7533]}}, {"type": "Feature", "properties": {"code": "CT3-1", "terminal": "CT3"}, "geometry": {"type": "Point", "coordinates": [69.7188, 22.7541]}}, {"type": "Feature", "properties": {"code": "CT3-2", "terminal": "CT3"}, "geometry": {"type": "Point", "coordinates": [69.7208, 22.7548]}}, {"type": "Feature", "properties": {"code": "CT3-3", "terminal": "CT3"}, "geometry": {"type": "Point", "coordinates": [69.7228, 22.7555]}}, {"type": "Feature", "properties": {"code": "CT3-4", "terminal": "CT3"}, "geometry": {"type": "Point", "coordinates": [69.7248, 22.7562]}}, {"type": "Feature", "properties": {"code": "CT4-1", "terminal": "CT4"}, "geometry": {"type": "Point", "coordinates": [69.727, 22.757]}}, {"type": "Feature", "properties": {"code": "CT4-2", "terminal": "CT4"}, "geometry": {"type": "Point", "coordinates": [69.729, 22.7577]}}, {"type": "Feature", "properties": {"code": "WB-1", "terminal": "WBC"}, "geometry": {"type": "Point", "coordinates": [69.687, 22.737]}}, {"type": "Feature", "properties": {"code": "WB-2", "terminal": "WBC"}, "geometry": {"type": "Point", "coordinates": [69.6895, 22.736]}}, {"type": "Feature", "properties": {"code": "MP-1", "terminal": "MPT"}, "geometry": {"type": "Point", "coordinates": [69.699, 22.7435]}}, {"type": "Feature", "properties": {"code": "MP-2", "terminal": "MPT"}, "geometry": {"type": "Point", "coordinates": [69.7008, 22.7442]}}, {"type": "Feature", "properties": {"code": "MP-3", "terminal": "MPT"}, "geometry": {"type": "Point", "coordinates": [69.7026, 22.7449]}}, {"type": "Feature", "properties": {"code": "MP-4", "terminal": "MPT"}, "geometry": {"type": "Point", "coordinates": [69.7044, 22.7456]}}, {"type": "Feature", "properties": {"code": "LB-1", "terminal": "LQB"}, "geometry": {"type": "Point", "coordinates": [69.694, 22.7405]}}, {"type": "Feature", "properties": {"code": "LB-2", "terminal": "LQB"}, "geometry": {"type": "Point", "coordinates": [69.6958, 22.7412]}}, {"type": "Feature", "properties": {"code": "LB-3", "terminal": "LQB"}, "geometry": {"type": "Point", "coordinates": [69.6976, 22.7419]}}, {"type": "Feature", "properties": {"code": "SPM-1", "terminal": "SPM"}, "geometry": {"type": "Point", "coordinates": [69.625, 22.635]}}, {"type": "Feature", "properties": {"code": "SPM-2", "terminal": "SPM"}, "geometry": {"type": "Point", "coordinates": [69.642, 22.628]}}, {"type": "Feature", "properties": {"code": "RR-1", "terminal": "RRT"}, "geometry": {"type": "Point", "coordinates": [69.7315, 22.748]}}]}